COMMENT,ORIGINATOR,NORAD_CAT_ID,OBJECT_NAME,OBJECT_TYPE,CLASSIFICATION_TYPE,INTLDES,EPOCH,EPOCH_MICROSECONDS,MEAN_MOTION,ECCENTRICITY,INCLINATION,RA_OF_ASC_NODE,ARG_OF_PERICENTER,MEAN_ANOMALY,EPHEMERIS_TYPE,ELEMENT_SET_NO,REV_AT_EPOCH,BSTAR,MEAN_MOTION_DOT,MEAN_MOTION_DDOT,FILE,TLE_LINE0,TLE_LINE1,TLE_LINE2,OBJECT_ID,OBJECT_NUMBER,SEMIMAJOR_AXIS,PERIOD,APOGEE,PERIGEE
"GENERATED VIA SPACETRACK.ORG API","JSPOC","6965","COSMOS 614","PAYLOAD","U","73098A","2016-01-09 21:44:19","145760","14.38852112","0.0022728","74.055","219.8128","20.8733","339.3344","0","999","20603","3.3327e-05","7.7e-07","0","1978726","0 COSMOS 614","1  6965U 73098A   16009.90577715 +.00000077 +00000-0 +33327-4 0  9996","2  6965 074.0550 219.8128 0022728 020.8733 339.3344 14.38852112206039","1973-098A","6965","7140.430","100.079","778.524","746.066"
"GENERATED VIA SPACETRACK.ORG API","JSPOC","18334","COSMOS 1875","PAYLOAD","U","87074A","2016-01-09 21:44:20","768352","12.66245492","0.0014032","82.5665","191.06","164.6756","308.6714","0","999","30987","0.00013796","3.7e-07","0","1978235","0 COSMOS 1875","1 18334U 87074A   16009.90579593  .00000037  00000-0  13796-3 0  9997","2 18334  82.5665 191.0600 0014032 164.6756 308.6714 12.66245492309872","1987-074A","18334","7775.408","113.722","1408.184","1386.363"
"GENERATED VIA SPACETRACK.ORG API","JSPOC","40379","GRIFEX","PAYLOAD","U","15003D","2016-01-09 21:44:21","81984","15.09155498","0.0151892","99.0936","86.387","297.515","61.0706","0","999","5168","0.00019469","3.946e-05","0","1978726","0 GRIFEX","1 40379U 15003D   16009.90579956 +.00003946 +00000-0 +19469-3 0  9992","2 40379 099.0936 086.3870 0151892 297.5150 061.0706 15.09155498051685","2015-003D","40379","6916.916","95.417","643.843","433.718"
"GENERATED VIA SPACETRACK.ORG API","JSPOC","1589","SL-8 R/B","ROCKET BODY","U","65073F","2016-01-09 21:44:26","277216","12.33013447","0.0167261","56.0531","321.519","73.7208","321.0971","0","999","26601","6.6431e-05","-8.3e-07","0","1978301","0 SL-8 R/B","1 01589U 65073F   16009.90585969 -.00000083  00000-0  66431-4 0  9997","2 01589  56.0531 321.5190 0167261  73.7208 321.0971 12.33013447266012","1965-073F","1589","7914.496","116.787","1668.740","1403.982"
"GENERATED VIA SPACETRACK.ORG API","JSPOC","6659","METEOR 1-15","PAYLOAD","U","73034A","2016-01-09 21:44:28","195296","14.09835857","0.0027837","81.1889","18.9672","17.8974","342.317","0","999","19035","0.00011325","2.12e-06","0","1978726","0 METEOR 1-15","1  6659U 73034A   16009.90588189 +.00000212 +00000-0 +11325-3 0  9997","2  6659 081.1889 018.9672 0027837 017.8974 342.3170 14.09835857190357","1973-034A","6659","7238.070","102.139","880.084","839.786"
"GENERATED VIA SPACETRACK.ORG API","JSPOC","16849","COSMOS 1761","PAYLOAD","U","86050A","2016-01-09 21:44:30","935040","2.00311754","0.5271162","69.6131","226.8964","112.202","223.7097","0","999","21620","0","-6.8e-07","0","1978726","0 COSMOS 1761","1 16849U 86050A   16009.90591360 -.00000068 +00000-0 +00000-0 0  9991","2 16849 069.6131 226.8964 5271162 112.2020 223.7097 02.00311754216209","1986-050A","16849","26582.605","718.879","34216.593","6192.348"
"GENERATED VIA SPACETRACK.ORG API","JSPOC","39763","COSMOS 2498","PAYLOAD","U","14028C","2016-01-09 21:44:42","701856","12.42883217","0.0022194","82.448","336.0345","93.1423","267.2203","0","999","7412","0","1e-07","0","1978263","0 COSMOS 2498","1 39763U 14028C   16009.90604979  .00000010  00000-0  00000+0 0  9993","2 39763  82.4480 336.0345 0022194  93.1423 267.2203 12.42883217 74124","2014-028C","39763","7872.541","115.859","1511.878","1476.934"
"GENERATED VIA SPACETRACK.ORG API","JSPOC","39392","SENSE SV2","PAYLOAD","U","13064N","2016-01-09 21:44:45","642048","15.43293214","0.000605","40.5029","314.8893","290.963","69.0539","0","999","11631","0.00029631","0.00013309","0","1978726","0 SENSE SV2","1 39392U 13064N   16009.90608382 +.00013309 +00000-0 +29631-3 0  9992","2 39392 040.5029 314.8893 0006050 290.9630 069.0539 15.43293214116312","2013-064N","39392","6814.534","93.306","440.522","432.276"
"GENERATED VIA SPACETRACK.ORG API","JSPOC","6236","OSCAR 6","PAYLOAD","U","72082B","2016-01-09 21:44:53","68128","12.53127302","0.0003789","101.6292","338.2646","254.8714","168.4904","0","999","97773","-5.0094e-05","-5.2e-07","0","1978327","0 OSCAR 6","1 06236U 72082B   16009.90616977 -.00000052  00000-0 -50094-4 0  9998","2 06236 101.6292 338.2646 0003789 254.8714 168.4904 12.53127302977731","1972-082B","6236","7829.578","114.912","1454.410","1448.476"
"GENERATED VIA SPACETRACK.ORG API","JSPOC","11132","COSMOS 1055","PAYLOAD","U","78109E","2016-01-09 21:44:54","231936","12.46901035","0.0015993","74.0174","83.5592","84.9032","31.4658","0","999","68849","0.00013136","3e-08","0","1978726","0 COSMOS 1055","1 11132U 78109E   16009.90618324 +.00000003 +00000-0 +13136-3 0  9992","2 11132 074.0174 083.5592 0015993 084.9032 031.4658 12.46901035688491","1978-109E","11132","7855.620","115.486","1490.049","1464.922"
"GENERATED VIA SPACETRACK.ORG API","JSPOC","4385","COSMOS 338","PAYLOAD","U","70036C","2016-01-09 21:45:06","757344","12.43321092","0.0032421","74.0269","172.8156","319.4646","153.2857","0","999","7438","-7.5058e-05","-2.6e-07","0","1978726","0 COSMOS 338","1  4385U 70036C   16009.90632821 -.00000026 +00000-0 -75058-4 0  9992","2  4385 074.0269 172.8156 0032421 319.4646 153.2857 12.43321092074385","1970-036C","4385","7870.693","115.818","1518.075","1467.040"
"GENERATED VIA SPACETRACK.ORG API","JSPOC","23538","ARIANE 44LP+ R/B","ROCKET BODY","U","95016C","2016-01-09 21:45:13","814496","3.11523214","0.666068","6.3924","307.4846","170.4237","215.2846","0","999","19572","0.0023219","0.00018636","0","1978398","0 ARIANE 44LP+ R/B","1 23538U 95016C   16009.90640989  .00018636  00000-0  23219-2 0  9996","2 23538   6.3924 307.4846 6660680 170.4237 215.2846  3.11523214195729","1995-016C","23538","19803.482","462.244","26615.813","234.881"
"GENERATED VIA SPACETRACK.ORG API","JSPOC","900","CALSPHERE 1","PAYLOAD","U","64063C","2016-01-09 21:45:13","74912","13.72620013","0.0024853","90.1391","3.6515","246.9221","112.9322","0","999","54808","0.00034173","3.23e-06","0","1978726","0 CALSPHERE 1","1   900U 64063C   16009.90640133 +.00000323 +00000-0 +34173-3 0  9999","2   900 090.1391 003.6515 0024853 246.9221 112.9322 13.72620013548082","1964-063C","900","7368.316","104.908","1008.494","971.869"
"GENERATED VIA SPACETRACK.ORG API","JSPOC","10520","COSMOS 968","PAYLOAD","U","77119A","2016-01-09 21:45:14","195520","14.3593282","0.0017337","74.0315","300.7096","14.7724","345.3931","0","999","99170","2.8686e-05","5.7e-07","0","1978726","0 COSMOS 968","1 10520U 77119A   16009.90641430 +.00000057 +00000-0 +28686-4 0  9992","2 10520 074.0315 300.7096 0017337 014.7724 345.3931 14.35932820991702","1977-119A","10520","7150.105","100.283","784.366","759.573"
"GENERATED VIA SPACETRACK.ORG API","JSPOC","5180","COSMOS 409","PAYLOAD","U","71038A","2016-01-09 21:45:17","673984","13.17753313","0.0023835","74.0023","351.9921","251.2011","134.0572","0","999","15018","-0.00061546","-2.59e-06","0","1978726","0 COSMOS 409","1  5180U 71038A   16009.90645456 -.00000259 +00000-0 -61546-3 0  9991","2  5180 074.0023 351.9921 0023835 251.2011 134.0572 13.17753313150186","1971-038A","5180","7571.450","109.276","1211.362","1175.269"
"GENERATED VIA SPACETRACK.ORG API","JSPOC","29047","FORMOSAT 3A","PAYLOAD","U","06011A","2016-01-09 21:45:20","440512","14.28451121","0.0051463","71.9782","176.8476","334.2437","25.6137","0","999","50988","8.5203e-05","1.75e-06","0","1978726","0 FORMOSAT 3A","1 29047U 06011A   16009.90648658 +.00000175 +00000-0 +85203-4 0  9997","2 29047 071.9782 176.8476 0051463 334.2437 025.6137 14.28451121509885","2006-011A","29047","7175.049","100.808","833.839","759.989"
"GENERATED VIA SPACETRACK.ORG API","JSPOC","40303","SL-24 R/B","ROCKET BODY","U","14070F","2016-01-09 21:45:22","790592","13.12734183","0.0958714","97.1621","324.4787","174.6908","186.5326","0","999","5634","6.2755e-06","-5e-08","0","1978304","0 SL-24 R/B","1 40303U 14070F   16009.90651378 -.00000005  00000-0  62755-5 0  9993","2 40303  97.1621 324.4787 0958714 174.6908 186.5326 13.12734183 56344","2014-070F","40303","7590.737","109.694","1940.337","484.867"
"GENERATED VIA SPACETRACK.ORG API","JSPOC","5846","COSMOS 475","PAYLOAD","U","72009A","2016-01-09 21:45:23","341824","13.76123842","0.002238","74.0499","341.6475","18.7067","44.1547","0","999","20277","1.8228e-05","-5e-08","0","1978726","0 COSMOS 475","1  5846U 72009A   16009.90652016 -.00000005 +00000-0 +18228-4 0  9997","2  5846 074.0499 341.6475 0022380 018.7067 044.1547 13.76123842202772","1972-009A","5846","7355.804","104.641","994.131","961.206"
"GENERATED VIA SPACETRACK.ORG API","JSPOC","15774","SL-12 R/B(AUX MOTOR)","ROCKET BODY","U","85042F","2016-01-09 21:45:29","89152","14.23734464","0.001851","66.5865","242.612","67.9262","17.2333","0","999","59061","8.1783e-05","1.02e-06","0","1978271","0 SL-12 R/B(AUX MOTOR)","1 15774U 85042F   16009.90658668  .00000102  00000-0  81783-4 0  9991","2 15774  66.5865 242.6120 0018510  67.9262  17.2333 14.23734464590614","1985-042F","15774","7190.887","101.142","826.063","799.442"
"GENERATED VIA SPACETRACK.ORG API","JSPOC","4598","COSMOS 375","PAYLOAD","U","70091A","2016-01-09 21:45:30","270240","12.96006463","0.0992529","62.8094","286.2426","113.2073","257.6524","0","999","13448","2.6933e-05","-3.1e-07","0","1978726","0 COSMOS 375","1  4598U 70091A   16009.90660035 -.00000031 +00000-0 +26933-4 0  9990","2  4598 062.8094 286.2426 0992529 113.2073 257.6524 12.96006463134488","1970-091A","4598","7655.914","111.110","2037.650","517.907"
